{
  "type": "FeatureCollection",
  "features": [
    {
      "type": "Feature",
      "properties": {
        "norad_id": 37994,
        "name": "COSMOS 2251 DEB",
        "group": "cosmos-2251-debris",
        "lat": -62.74234125216778,
        "lon": -142.0032655695981,
        "alt_km": 753.0468216568052,
        "timestamp": "2025-12-25T16:53:15.061677+00:00",
        "meta_object_name": "COSMOS 2251 DEB",
        "meta_object_id": "1993-036BQV",
        "meta_epoch": "2025-12-25T02:11:24.077760",
        "meta_mean_motion": 14.39649884,
        "meta_eccentricity": 0.00233888,
        "meta_inclination": 74.0357,
        "meta_ra_of_asc_node": 252.8806,
        "meta_arg_of_pericenter": 330.1909,
        "meta_mean_anomaly": 29.7912,
        "meta_ephemeris_type": 0,
        "meta_classification_type": "U",
        "meta_norad_cat_id": 37994,
        "meta_element_set_no": 999,
        "meta_rev_at_epoch": 77242,
        "meta_bstar": 0.00032368733,
        "meta_mean_motion_dot": 9.89e-06,
        "meta_mean_motion_ddot": 0,
        "tle_line1": "1 37994U 93036BQV 25359.09125090  .00000989  00000+0  32369-3 0  9994",
        "tle_line2": "2 37994  74.0357 252.8806 0023388 330.1909  29.7912 14.39649884772428"
      },
      "geometry": {
        "type": "Point",
        "coordinates": [
          -142.0032655695981,
          -62.74234125216778
        ]
      }
    },
    {
      "type": "Feature",
      "properties": {
        "norad_id": 37998,
        "name": "COSMOS 2251 DEB",
        "group": "cosmos-2251-debris",
        "lat": 65.84816762472003,
        "lon": -8.736834668814437,
        "alt_km": 747.8556377096702,
        "timestamp": "2025-12-25T16:53:15.061687+00:00",
        "meta_object_name": "COSMOS 2251 DEB",
        "meta_object_id": "1993-036BQZ",
        "meta_epoch": "2025-12-19T00:55:56.823168",
        "meta_mean_motion": 14.45502343,
        "meta_eccentricity": 0.00202427,
        "meta_inclination": 74.0345,
        "meta_ra_of_asc_node": 223.3597,
        "meta_arg_of_pericenter": 295.5973,
        "meta_mean_anomaly": 64.3093,
        "meta_ephemeris_type": 0,
        "meta_classification_type": "U",
        "meta_norad_cat_id": 37998,
        "meta_element_set_no": 999,
        "meta_rev_at_epoch": 64378,
        "meta_bstar": 0.00035299512,
        "meta_mean_motion_dot": 1.221e-05,
        "meta_mean_motion_ddot": 0,
        "tle_line1": "1 37998U 93036BQZ 25353.03885212  .00001221  00000+0  35300-3 0  9993",
        "tle_line2": "2 37998  74.0345 223.3597 0020242 295.5973  64.3093 14.45502343643786"
      },
      "geometry": {
        "type": "Point",
        "coordinates": [
          -8.736834668814437,
          65.84816762472003
        ]
      }
    },
    {
      "type": "Feature",
      "properties": {
        "norad_id": 38001,
        "name": "COSMOS 2251 DEB",
        "group": "cosmos-2251-debris",
        "lat": -13.603687639868728,
        "lon": -69.24712033515385,
        "alt_km": 612.7093317082981,
        "timestamp": "2025-12-25T16:53:15.061697+00:00",
        "meta_object_name": "COSMOS 2251 DEB",
        "meta_object_id": "1993-036BRC",
        "meta_epoch": "2025-12-24T14:06:30.774816",
        "meta_mean_motion": 14.79211878,
        "meta_eccentricity": 0.00654133,
        "meta_inclination": 74.0014,
        "meta_ra_of_asc_node": 108.9705,
        "meta_arg_of_pericenter": 256.3059,
        "meta_mean_anomaly": 119.0701,
        "meta_ephemeris_type": 0,
        "meta_classification_type": "U",
        "meta_norad_cat_id": 38001,
        "meta_element_set_no": 999,
        "meta_rev_at_epoch": 74883,
        "meta_bstar": 0.00090669096,
        "meta_mean_motion_dot": 6.951e-05,
        "meta_mean_motion_ddot": 0,
        "tle_line1": "1 38001U 93036BRC 25358.58785619  .00006951  00000+0  90669-3 0  9998",
        "tle_line2": "2 38001  74.0014 108.9705 0065413 256.3059 119.0701 14.79211878748836"
      },
      "geometry": {
        "type": "Point",
        "coordinates": [
          -69.24712033515385,
          -13.603687639868728
        ]
      }
    },
    {
      "type": "Feature",
      "properties": {
        "norad_id": 38006,
        "name": "COSMOS 2251 DEB",
        "group": "cosmos-2251-debris",
        "lat": -57.33983166397345,
        "lon": -13.19865098101194,
        "alt_km": 692.7202237016672,
        "timestamp": "2025-12-25T16:53:15.061707+00:00",
        "meta_object_name": "COSMOS 2251 DEB",
        "meta_object_id": "1993-036BRH",
        "meta_epoch": "2025-12-10T03:36:37.956384",
        "meta_mean_motion": 14.45867865,
        "meta_eccentricity": 0.00758537,
        "meta_inclination": 73.8744,
        "meta_ra_of_asc_node": 42.933,
        "meta_arg_of_pericenter": 348.3853,
        "meta_mean_anomaly": 11.555,
        "meta_ephemeris_type": 0,
        "meta_classification_type": "U",
        "meta_norad_cat_id": 38006,
        "meta_element_set_no": 999,
        "meta_rev_at_epoch": 62922,
        "meta_bstar": 0.0047338847,
        "meta_mean_motion_dot": 0.00017443,
        "meta_mean_motion_ddot": 0,
        "tle_line1": "1 38006U 93036BRH 25344.15043931  .00017443  00000+0  47339-2 0  9998",
        "tle_line2": "2 38006  73.8744  42.9330 0075853 348.3853  11.5550 14.45867865629227"
      },
      "geometry": {
        "type": "Point",
        "coordinates": [
          -13.19865098101194,
          -57.33983166397345
        ]
      }
    },
    {
      "type": "Feature",
      "properties": {
        "norad_id": 38054,
        "name": "COSMOS 2251 DEB",
        "group": "cosmos-2251-debris",
        "lat": 68.69143600941399,
        "lon": 17.022092404408276,
        "alt_km": 1127.8134872123592,
        "timestamp": "2025-12-25T16:53:15.061717+00:00",
        "meta_object_name": "COSMOS 2251 DEB",
        "meta_object_id": "1993-036BRL",
        "meta_epoch": "2025-12-25T03:01:07.010112",
        "meta_mean_motion": 13.62393869,
        "meta_eccentricity": 0.03570212,
        "meta_inclination": 73.9517,
        "meta_ra_of_asc_node": 245.5222,
        "meta_arg_of_pericenter": 221.1559,
        "meta_mean_anomaly": 293.5582,
        "meta_ephemeris_type": 0,
        "meta_classification_type": "U",
        "meta_norad_cat_id": 38054,
        "meta_element_set_no": 999,
        "meta_rev_at_epoch": 67348,
        "meta_bstar": 0.0017292358,
        "meta_mean_motion_dot": 2.033e-05,
        "meta_mean_motion_ddot": 0,
        "tle_line1": "1 38054U 93036BRL 25359.12577558  .00002033  00000+0  17292-2 0  9995",
        "tle_line2": "2 38054  73.9517 245.5222 0357021 221.1559 293.5582 13.62393869673481"
      },
      "geometry": {
        "type": "Point",
        "coordinates": [
          17.022092404408276,
          68.69143600941399
        ]
      }
    },
    {
      "type": "Feature",
      "properties": {
        "norad_id": 38055,
        "name": "COSMOS 2251 DEB",
        "group": "cosmos-2251-debris",
        "lat": -12.468000635845872,
        "lon": 177.66279290097248,
        "alt_km": 607.5403633568567,
        "timestamp": "2025-12-25T16:53:15.061734+00:00",
        "meta_object_name": "COSMOS 2251 DEB",
        "meta_object_id": "1993-036BRM",
        "meta_epoch": "2025-12-23T19:29:54.305376",
        "meta_mean_motion": 14.77082596,
        "meta_eccentricity": 0.00661115,
        "meta_inclination": 74.0078,
        "meta_ra_of_asc_node": 185.0116,
        "meta_arg_of_pericenter": 310.2011,
        "meta_mean_anomaly": 64.0463,
        "meta_ephemeris_type": 0,
        "meta_classification_type": "U",
        "meta_norad_cat_id": 38055,
        "meta_element_set_no": 999,
        "meta_rev_at_epoch": 60846,
        "meta_bstar": 0.00072215259,
        "meta_mean_motion_dot": 5.255e-05,
        "meta_mean_motion_ddot": 0,
        "tle_line1": "1 38055U 93036BRM 25357.81243409  .00005255  00000+0  72215-3 0  9991",
        "tle_line2": "2 38055  74.0078 185.0116 0066111 310.2011  64.0463 14.77082596608460"
      },
      "geometry": {
        "type": "Point",
        "coordinates": [
          177.66279290097248,
          -12.468000635845872
        ]
      }
    },
    {
      "type": "Feature",
      "properties": {
        "norad_id": 38060,
        "name": "COSMOS 2251 DEB",
        "group": "cosmos-2251-debris",
        "lat": -40.21177765358639,
        "lon": -103.57334567604381,
        "alt_km": 662.9171502988302,
        "timestamp": "2025-12-25T16:53:15.061744+00:00",
        "meta_object_name": "COSMOS 2251 DEB",
        "meta_object_id": "1993-036BRS",
        "meta_epoch": "2025-12-22T11:59:35.078784",
        "meta_mean_motion": 14.63909743,
        "meta_eccentricity": 0.00586084,
        "meta_inclination": 74.043,
        "meta_ra_of_asc_node": 276.5721,
        "meta_arg_of_pericenter": 20.0647,
        "meta_mean_anomaly": 340.2805,
        "meta_ephemeris_type": 0,
        "meta_classification_type": "U",
        "meta_norad_cat_id": 38060,
        "meta_element_set_no": 999,
        "meta_rev_at_epoch": 72107,
        "meta_bstar": 0.00053329406,
        "meta_mean_motion_dot": 2.829e-05,
        "meta_mean_motion_ddot": 0,
        "tle_line1": "1 38060U 93036BRS 25356.49971156  .00002829  00000+0  53329-3 0  9996",
        "tle_line2": "2 38060  74.0430 276.5721 0058608  20.0647 340.2805 14.63909743721078"
      },
      "geometry": {
        "type": "Point",
        "coordinates": [
          -103.57334567604381,
          -40.21177765358639
        ]
      }
    }
  ]
}